CCSDS_OMM_VERS = 2.0
CREATION_DATE  = 
ORIGINATOR     = 

OBJECT_NAME    = KUIPER-00276
OBJECT_ID      = 2026-030AG
CENTER_NAME    = EARTH
REF_FRAME      = TEME
TIME_SYSTEM    = UTC
MEAN_ELEMENT_THEORY = SGP/SGP4

EPOCH          = 2026-02-26T14:16:15.687264
MEAN_MOTION    = 15.31637865
ECCENTRICITY   = .00180455
INCLINATION    = 51.8830
RA_OF_ASC_NODE = 272.9469
ARG_OF_PERICENTER = 36.1129
MEAN_ANOMALY   = 324.1070

EPHEMERIS_TYPE = 0
CLASSIFICATION_TYPE = U
NORAD_CAT_ID   = 67794
ELEMENT_SET_NO = 999
REV_AT_EPOCH   = 338
BSTAR          = .91776023E-3
MEAN_MOTION_DOT = .28324E-3
MEAN_MOTION_DDOT = 0

CCSDS_OMM_VERS = 2.0
CREATION_DATE  = 
ORIGINATOR     = 

OBJECT_NAME    = KUIPER-00279
OBJECT_ID      = 2026-030AH
CENTER_NAME    = EARTH
REF_FRAME      = TEME
TIME_SYSTEM    = UTC
MEAN_ELEMENT_THEORY = SGP/SGP4

EPOCH          = 2026-02-26T15:15:54.169632
MEAN_MOTION    = 15.34850606
ECCENTRICITY   = .00061469
INCLINATION    = 51.8803
RA_OF_ASC_NODE = 272.4785
ARG_OF_PERICENTER = 19.8965
MEAN_ANOMALY   = 340.2260

EPHEMERIS_TYPE = 0
CLASSIFICATION_TYPE = U
NORAD_CAT_ID   = 67795
ELEMENT_SET_NO = 999
REV_AT_EPOCH   = 339
BSTAR          = .59337055E-3
MEAN_MOTION_DOT = .2004E-3
MEAN_MOTION_DDOT = 0

CCSDS_OMM_VERS = 2.0
CREATION_DATE  = 
ORIGINATOR     = 

OBJECT_NAME    = CREW DRAGON 12
OBJECT_ID      = 2026-031A
CENTER_NAME    = EARTH
REF_FRAME      = TEME
TIME_SYSTEM    = UTC
MEAN_ELEMENT_THEORY = SGP/SGP4

EPOCH          = 2026-02-26T13:00:04.689216
MEAN_MOTION    = 15.48311551
ECCENTRICITY   = .00083443
INCLINATION    = 51.6322
RA_OF_ASC_NODE = 127.4658
ARG_OF_PERICENTER = 135.8715
MEAN_ANOMALY   = 224.2940

EPHEMERIS_TYPE = 0
CLASSIFICATION_TYPE = U
NORAD_CAT_ID   = 67796
ELEMENT_SET_NO = 999
REV_AT_EPOCH   = 55457
BSTAR          = .23065818E-3
MEAN_MOTION_DOT = .11988E-3
MEAN_MOTION_DDOT = 0

CCSDS_OMM_VERS = 2.0
CREATION_DATE  = 
ORIGINATOR     = 

OBJECT_NAME    = STARLINK-36800
OBJECT_ID      = 2026-032A
CENTER_NAME    = EARTH
REF_FRAME      = TEME
TIME_SYSTEM    = UTC
MEAN_ELEMENT_THEORY = SGP/SGP4

EPOCH          = 2026-02-25T22:45:37.459872
MEAN_MOTION    = 15.83750131
ECCENTRICITY   = .0005281
INCLINATION    = 97.2875
RA_OF_ASC_NODE = 242.8327
ARG_OF_PERICENTER = 4.5225
MEAN_ANOMALY   = 355.6092

EPHEMERIS_TYPE = 0
CLASSIFICATION_TYPE = U
NORAD_CAT_ID   = 67797
ELEMENT_SET_NO = 999
REV_AT_EPOCH   = 293
BSTAR          = .13804E-2
MEAN_MOTION_DOT = .313982E-2
MEAN_MOTION_DDOT = 0

CCSDS_OMM_VERS = 2.0
CREATION_DATE  = 
ORIGINATOR     = 

OBJECT_NAME    = STARLINK-36798
OBJECT_ID      = 2026-032B
CENTER_NAME    = EARTH
REF_FRAME      = TEME
TIME_SYSTEM    = UTC
MEAN_ELEMENT_THEORY = SGP/SGP4

EPOCH          = 2026-02-25T10:36:25.921152
MEAN_MOTION    = 15.86710507
ECCENTRICITY   = .0003429
INCLINATION    = 97.2870
RA_OF_ASC_NODE = 242.2964
ARG_OF_PERICENTER = 100.8346
MEAN_ANOMALY   = 259.3311

EPHEMERIS_TYPE = 0
CLASSIFICATION_TYPE = U
NORAD_CAT_ID   = 67798
ELEMENT_SET_NO = 999
REV_AT_EPOCH   = 285
BSTAR          = .19474E-2
MEAN_MOTION_DOT = .52207E-2
MEAN_MOTION_DDOT = 0

CCSDS_OMM_VERS = 2.0
CREATION_DATE  = 
ORIGINATOR     = 

OBJECT_NAME    = STARLINK-36804
OBJECT_ID      = 2026-032C
CENTER_NAME    = EARTH
REF_FRAME      = TEME
TIME_SYSTEM    = UTC
MEAN_ELEMENT_THEORY = SGP/SGP4

EPOCH          = 2026-02-25T10:35:03.043680
MEAN_MOTION    = 15.86574376
ECCENTRICITY   = .0006337
INCLINATION    = 97.2858
RA_OF_ASC_NODE = 242.2982
ARG_OF_PERICENTER = 166.2980
MEAN_ANOMALY   = 193.8464

EPHEMERIS_TYPE = 0
CLASSIFICATION_TYPE = U
NORAD_CAT_ID   = 67799
ELEMENT_SET_NO = 999
REV_AT_EPOCH   = 285
BSTAR          = .20134E-2
MEAN_MOTION_DOT = .53744E-2
MEAN_MOTION_DDOT = 0

CCSDS_OMM_VERS = 2.0
CREATION_DATE  = 
ORIGINATOR     = 

OBJECT_NAME    = STARLINK-36354
OBJECT_ID      = 2026-032D
CENTER_NAME    = EARTH
REF_FRAME      = TEME
TIME_SYSTEM    = UTC
MEAN_ELEMENT_THEORY = SGP/SGP4

EPOCH          = 2026-02-25T22:41:39.885792
MEAN_MOTION    = 15.84351598
ECCENTRICITY   = .0005573
INCLINATION    = 97.2879
RA_OF_ASC_NODE = 242.8372
ARG_OF_PERICENTER = 8.3004
MEAN_ANOMALY   = 351.8357

EPHEMERIS_TYPE = 0
CLASSIFICATION_TYPE = U
NORAD_CAT_ID   = 67800
ELEMENT_SET_NO = 999
REV_AT_EPOCH   = 293
BSTAR          = .13665E-2
MEAN_MOTION_DOT = .320009E-2
MEAN_MOTION_DDOT = 0

CCSDS_OMM_VERS = 2.0
CREATION_DATE  = 
ORIGINATOR     = 

OBJECT_NAME    = STARLINK-36773
OBJECT_ID      = 2026-032E
CENTER_NAME    = EARTH
REF_FRAME      = TEME
TIME_SYSTEM    = UTC
MEAN_ELEMENT_THEORY = SGP/SGP4

EPOCH          = 2026-02-25T22:40:27.213888
MEAN_MOTION    = 15.84576777
ECCENTRICITY   = .0005658
INCLINATION    = 97.2869
RA_OF_ASC_NODE = 242.8370
ARG_OF_PERICENTER = 6.3471
MEAN_ANOMALY   = 353.7870

EPHEMERIS_TYPE = 0
CLASSIFICATION_TYPE = U
NORAD_CAT_ID   = 67801
ELEMENT_SET_NO = 999
REV_AT_EPOCH   = 293
BSTAR          = .1699E-2
MEAN_MOTION_DOT = .406108E-2
MEAN_MOTION_DDOT = 0

CCSDS_OMM_VERS = 2.0
CREATION_DATE  = 
ORIGINATOR     = 

OBJECT_NAME    = STARLINK-36739
OBJECT_ID      = 2026-032F
CENTER_NAME    = EARTH
REF_FRAME      = TEME
TIME_SYSTEM    = UTC
MEAN_ELEMENT_THEORY = SGP/SGP4

EPOCH          = 2026-02-25T10:30:36.453888
MEAN_MOTION    = 15.87183473
ECCENTRICITY   = .0006463
INCLINATION    = 97.2856
RA_OF_ASC_NODE = 242.3014
ARG_OF_PERICENTER = 170.6405
MEAN_ANOMALY   = 189.4988

EPHEMERIS_TYPE = 0
CLASSIFICATION_TYPE = U
NORAD_CAT_ID   = 67802
ELEMENT_SET_NO = 999
REV_AT_EPOCH   = 285
BSTAR          = .14483E-2
MEAN_MOTION_DOT = .391724E-2
MEAN_MOTION_DDOT = 0

CCSDS_OMM_VERS = 2.0
CREATION_DATE  = 
ORIGINATOR     = 

OBJECT_NAME    = STARLINK-36768
OBJECT_ID      = 2026-032G
CENTER_NAME    = EARTH
REF_FRAME      = TEME
TIME_SYSTEM    = UTC
MEAN_ELEMENT_THEORY = SGP/SGP4

EPOCH          = 2026-02-24T16:22:00.630336
MEAN_MOTION    = 15.88589659
ECCENTRICITY   = .0000699
INCLINATION    = 97.2859
RA_OF_ASC_NODE = 241.4924
ARG_OF_PERICENTER = 89.5227
MEAN_ANOMALY   = 270.6125

EPHEMERIS_TYPE = 0
CLASSIFICATION_TYPE = U
NORAD_CAT_ID   = 67803
ELEMENT_SET_NO = 999
REV_AT_EPOCH   = 273
BSTAR          = -.28201E-2
MEAN_MOTION_DOT = -.722253E-2
MEAN_MOTION_DDOT = 0

CCSDS_OMM_VERS = 2.0
CREATION_DATE  = 
ORIGINATOR     = 

OBJECT_NAME    = STARLINK-36792
OBJECT_ID      = 2026-032H
CENTER_NAME    = EARTH
REF_FRAME      = TEME
TIME_SYSTEM    = UTC
MEAN_ELEMENT_THEORY = SGP/SGP4

EPOCH          = 2026-02-25T10:29:32.465184
MEAN_MOTION    = 15.87598523
ECCENTRICITY   = .0004858
INCLINATION    = 97.2856
RA_OF_ASC_NODE = 242.3017
ARG_OF_PERICENTER = 187.2905
MEAN_ANOMALY   = 172.8297

EPHEMERIS_TYPE = 0
CLASSIFICATION_TYPE = U
NORAD_CAT_ID   = 67804
ELEMENT_SET_NO = 999
REV_AT_EPOCH   = 285
BSTAR          = .18205E-2
MEAN_MOTION_DOT = .508849E-2
MEAN_MOTION_DDOT = 0

CCSDS_OMM_VERS = 2.0
CREATION_DATE  = 
ORIGINATOR     = 

OBJECT_NAME    = STARLINK-36782
OBJECT_ID      = 2026-032J
CENTER_NAME    = EARTH
REF_FRAME      = TEME
TIME_SYSTEM    = UTC
MEAN_ELEMENT_THEORY = SGP/SGP4

EPOCH          = 2026-02-25T10:28:32.793888
MEAN_MOTION    = 15.87497674
ECCENTRICITY   = .0005283
INCLINATION    = 97.2860
RA_OF_ASC_NODE = 242.3033
ARG_OF_PERICENTER = 170.9996
MEAN_ANOMALY   = 189.1372

EPHEMERIS_TYPE = 0
CLASSIFICATION_TYPE = U
NORAD_CAT_ID   = 67805
ELEMENT_SET_NO = 999
REV_AT_EPOCH   = 285
BSTAR          = .14014E-2
MEAN_MOTION_DOT = .384425E-2
MEAN_MOTION_DDOT = 0

CCSDS_OMM_VERS = 2.0
CREATION_DATE  = 
ORIGINATOR     = 

OBJECT_NAME    = STARLINK-36389
OBJECT_ID      = 2026-032K
CENTER_NAME    = EARTH
REF_FRAME      = TEME
TIME_SYSTEM    = UTC
MEAN_ELEMENT_THEORY = SGP/SGP4

EPOCH          = 2026-02-25T10:27:10.096128
MEAN_MOTION    = 15.87795098
ECCENTRICITY   = .0005711
INCLINATION    = 97.2852
RA_OF_ASC_NODE = 242.3043
ARG_OF_PERICENTER = 169.7575
MEAN_ANOMALY   = 190.3815

EPHEMERIS_TYPE = 0
CLASSIFICATION_TYPE = U
NORAD_CAT_ID   = 67806
ELEMENT_SET_NO = 999
REV_AT_EPOCH   = 285
BSTAR          = .17922E-2
MEAN_MOTION_DOT = .505706E-2
MEAN_MOTION_DDOT = 0

CCSDS_OMM_VERS = 2.0
CREATION_DATE  = 
ORIGINATOR     = 

OBJECT_NAME    = STARLINK-36382
OBJECT_ID      = 2026-032L
CENTER_NAME    = EARTH
REF_FRAME      = TEME
TIME_SYSTEM    = UTC
MEAN_ELEMENT_THEORY = SGP/SGP4

EPOCH          = 2026-02-25T10:26:02.486400
MEAN_MOTION    = 15.88385174
ECCENTRICITY   = .0005497
INCLINATION    = 97.2856
RA_OF_ASC_NODE = 242.3048
ARG_OF_PERICENTER = 236.9878
MEAN_ANOMALY   = 123.0867

EPHEMERIS_TYPE = 0
CLASSIFICATION_TYPE = U
NORAD_CAT_ID   = 67807
ELEMENT_SET_NO = 999
REV_AT_EPOCH   = 285
BSTAR          = .18027E-2
MEAN_MOTION_DOT = .524667E-2
MEAN_MOTION_DDOT = 0

CCSDS_OMM_VERS = 2.0
CREATION_DATE  = 
ORIGINATOR     = 

OBJECT_NAME    = STARLINK-36811
OBJECT_ID      = 2026-032M
CENTER_NAME    = EARTH
REF_FRAME      = TEME
TIME_SYSTEM    = UTC
MEAN_ELEMENT_THEORY = SGP/SGP4

EPOCH          = 2026-02-24T11:43:48.211680
MEAN_MOTION    = 15.90410171
ECCENTRICITY   = .0002418
INCLINATION    = 97.2846
RA_OF_ASC_NODE = 241.2957
ARG_OF_PERICENTER = 103.6587
MEAN_ANOMALY   = 256.4956

EPHEMERIS_TYPE = 0
CLASSIFICATION_TYPE = U
NORAD_CAT_ID   = 67808
ELEMENT_SET_NO = 999
REV_AT_EPOCH   = 270
BSTAR          = -.24043E-2
MEAN_MOTION_DOT = -.729386E-2
MEAN_MOTION_DDOT = .1644E-3

